{
  "type": "FeatureCollection",
  "features": [
    {
      "type": "Feature",
      "properties": {
        "norad_id": 36585,
        "name": "GPS BIIF-1  (PRN 25)",
        "group": "gnss",
        "lat": -47.002400293815214,
        "lon": 165.1370568601149,
        "alt_km": 20399.66155849867,
        "timestamp": "2025-12-24T20:42:21.268932+00:00",
        "meta_object_name": "GPS BIIF-1  (PRN 25)",
        "meta_object_id": "2010-022A",
        "meta_epoch": "2025-12-24T05:28:23.943360",
        "meta_mean_motion": 2.00553772,
        "meta_eccentricity": 0.01265509,
        "meta_inclination": 54.2984,
        "meta_ra_of_asc_node": 215.6106,
        "meta_arg_of_pericenter": 65.2201,
        "meta_mean_anomaly": 133.4406,
        "meta_ephemeris_type": 0,
        "meta_classification_type": "U",
        "meta_norad_cat_id": 36585,
        "meta_element_set_no": 999,
        "meta_rev_at_epoch": 11408,
        "meta_bstar": 0,
        "meta_mean_motion_dot": 7.3e-07,
        "meta_mean_motion_ddot": 0,
        "tle_line1": "1 36585U 10022A   25358.22805490  .00000073  00000+0  00000+0 0  9993",
        "tle_line2": "2 36585  54.2984 215.6106 0126550  65.2201 133.4406  2.00553772114083"
      },
      "geometry": {
        "type": "Point",
        "coordinates": [
          165.1370568601149,
          -47.002400293815214
        ]
      }
    },
    {
      "type": "Feature",
      "properties": {
        "norad_id": 36828,
        "name": "BEIDOU-2 IGSO-1 (C06)",
        "group": "gnss",
        "lat": -9.5442577392087,
        "lon": 157.57048847313445,
        "alt_km": 35933.33636248409,
        "timestamp": "2025-12-24T20:42:21.268945+00:00",
        "meta_object_name": "BEIDOU-2 IGSO-1 (C06)",
        "meta_object_id": "2010-036A",
        "meta_epoch": "2025-12-20T21:47:26.739168",
        "meta_mean_motion": 1.00282395,
        "meta_eccentricity": 0.0051798,
        "meta_inclination": 54.2882,
        "meta_ra_of_asc_node": 164.5739,
        "meta_arg_of_pericenter": 215.2932,
        "meta_mean_anomaly": 144.6604,
        "meta_ephemeris_type": 0,
        "meta_classification_type": "U",
        "meta_norad_cat_id": 36828,
        "meta_element_set_no": 999,
        "meta_rev_at_epoch": 5631,
        "meta_bstar": 0,
        "meta_mean_motion_dot": -5.5e-07,
        "meta_mean_motion_ddot": 0,
        "tle_line1": "1 36828U 10036A   25354.90794837 -.00000055  00000+0  00000+0 0  9992",
        "tle_line2": "2 36828  54.2882 164.5739 0051798 215.2932 144.6604  1.00282395 56317"
      },
      "geometry": {
        "type": "Point",
        "coordinates": [
          157.57048847313445,
          -9.5442577392087
        ]
      }
    },
    {
      "type": "Feature",
      "properties": {
        "norad_id": 37210,
        "name": "BEIDOU-2 G4 (C04)",
        "group": "gnss",
        "lat": 2.2967515749763066,
        "lon": -155.75607322504916,
        "alt_km": 35763.53143915151,
        "timestamp": "2025-12-24T20:42:21.268958+00:00",
        "meta_object_name": "BEIDOU-2 G4 (C04)",
        "meta_object_id": "2010-057A",
        "meta_epoch": "2025-12-24T07:55:23.575008",
        "meta_mean_motion": 1.00271678,
        "meta_eccentricity": 0.0010407,
        "meta_inclination": 3.2114,
        "meta_ra_of_asc_node": 69.8943,
        "meta_arg_of_pericenter": 193.8429,
        "meta_mean_anomaly": 108.3027,
        "meta_ephemeris_type": 0,
        "meta_classification_type": "U",
        "meta_norad_cat_id": 37210,
        "meta_element_set_no": 999,
        "meta_rev_at_epoch": 5553,
        "meta_bstar": 0,
        "meta_mean_motion_dot": -9.2e-07,
        "meta_mean_motion_ddot": 0,
        "tle_line1": "1 37210U 10057A   25358.33013397 -.00000092  00000+0  00000+0 0  9998",
        "tle_line2": "2 37210   3.2114  69.8943 0010407 193.8429 108.3027  1.00271678 55534"
      },
      "geometry": {
        "type": "Point",
        "coordinates": [
          -155.75607322504916,
          2.2967515749763066
        ]
      }
    },
    {
      "type": "Feature",
      "properties": {
        "norad_id": 37256,
        "name": "BEIDOU-2 IGSO-2 (C07)",
        "group": "gnss",
        "lat": -39.21710819836742,
        "lon": 141.51205011718545,
        "alt_km": 35598.40869039335,
        "timestamp": "2025-12-24T20:42:21.268970+00:00",
        "meta_object_name": "BEIDOU-2 IGSO-2 (C07)",
        "meta_object_id": "2010-068A",
        "meta_epoch": "2025-12-23T17:03:51.690816",
        "meta_mean_motion": 1.00283101,
        "meta_eccentricity": 0.00485637,
        "meta_inclination": 47.8659,
        "meta_ra_of_asc_node": 274.0149,
        "meta_arg_of_pericenter": 216.3394,
        "meta_mean_anomaly": 326.1369,
        "meta_ephemeris_type": 0,
        "meta_classification_type": "U",
        "meta_norad_cat_id": 37256,
        "meta_element_set_no": 999,
        "meta_rev_at_epoch": 5503,
        "meta_bstar": 0,
        "meta_mean_motion_dot": -1.88e-06,
        "meta_mean_motion_ddot": 0,
        "tle_line1": "1 37256U 10068A   25357.71101494 -.00000188  00000+0  00000+0 0  9993",
        "tle_line2": "2 37256  47.8659 274.0149 0048563 216.3394 326.1369  1.00283101 55034"
      },
      "geometry": {
        "type": "Point",
        "coordinates": [
          141.51205011718545,
          -39.21710819836742
        ]
      }
    },
    {
      "type": "Feature",
      "properties": {
        "norad_id": 37384,
        "name": "BEIDOU-2 IGSO-3 (C08)",
        "group": "gnss",
        "lat": 56.61984170055113,
        "lon": 168.53297765872284,
        "alt_km": 35751.573552111535,
        "timestamp": "2025-12-24T20:42:21.268982+00:00",
        "meta_object_name": "BEIDOU-2 IGSO-3 (C08)",
        "meta_object_id": "2011-013A",
        "meta_epoch": "2025-12-23T13:38:13.451136",
        "meta_mean_motion": 1.00268394,
        "meta_eccentricity": 0.00353473,
        "meta_inclination": 62.1571,
        "meta_ra_of_asc_node": 41.8137,
        "meta_arg_of_pericenter": 187.6149,
        "meta_mean_anomaly": 174.7745,
        "meta_ephemeris_type": 0,
        "meta_classification_type": "U",
        "meta_norad_cat_id": 37384,
        "meta_element_set_no": 999,
        "meta_rev_at_epoch": 5390,
        "meta_bstar": 0,
        "meta_mean_motion_dot": -1.6e-06,
        "meta_mean_motion_ddot": 0,
        "tle_line1": "1 37384U 11013A   25357.56821124 -.00000160  00000+0  00000+0 0  9998",
        "tle_line2": "2 37384  62.1571  41.8137 0035347 187.6149 174.7745  1.00268394 53906"
      },
      "geometry": {
        "type": "Point",
        "coordinates": [
          168.53297765872284,
          56.61984170055113
        ]
      }
    },
    {
      "type": "Feature",
      "properties": {
        "norad_id": 37605,
        "name": "GSAT-8 (GAGAN/PRN 127)",
        "group": "gnss",
        "lat": 0.4614169740749084,
        "lon": 99.25966678492917,
        "alt_km": 35823.461170349576,
        "timestamp": "2025-12-24T20:42:21.268994+00:00",
        "meta_object_name": "GSAT-8 (GAGAN/PRN 127)",
        "meta_object_id": "2011-022A",
        "meta_epoch": "2025-12-23T23:39:58.906080",
        "meta_mean_motion": 1.00271313,
        "meta_eccentricity": 0.00089405,
        "meta_inclination": 1.677,
        "meta_ra_of_asc_node": 84.0773,
        "meta_arg_of_pericenter": 186.0821,
        "meta_mean_anomaly": 232.6719,
        "meta_ephemeris_type": 0,
        "meta_classification_type": "U",
        "meta_norad_cat_id": 37605,
        "meta_element_set_no": 999,
        "meta_rev_at_epoch": 5146,
        "meta_bstar": 0,
        "meta_mean_motion_dot": 1.05e-06,
        "meta_mean_motion_ddot": 0,
        "tle_line1": "1 37605U 11022A   25357.98609845  .00000105  00000+0  00000+0 0  9992",
        "tle_line2": "2 37605   1.6770  84.0773 0008940 186.0821 232.6719  1.00271313 51464"
      },
      "geometry": {
        "type": "Point",
        "coordinates": [
          99.25966678492917,
          0.4614169740749084
        ]
      }
    },
    {
      "type": "Feature",
      "properties": {
        "norad_id": 37763,
        "name": "BEIDOU-2 IGSO-4 (C09)",
        "group": "gnss",
        "lat": -21.389206643553113,
        "lon": 151.02758330937337,
        "alt_km": 35922.867744453746,
        "timestamp": "2025-12-24T20:42:21.269006+00:00",
        "meta_object_name": "BEIDOU-2 IGSO-4 (C09)",
        "meta_object_id": "2011-038A",
        "meta_epoch": "2025-12-21T10:06:26.864064",
        "meta_mean_motion": 1.00280083,
        "meta_eccentricity": 0.01491557,
        "meta_inclination": 54.5854,
        "meta_ra_of_asc_node": 167.2693,
        "meta_arg_of_pericenter": 230.0944,
        "meta_mean_anomaly": 299.1265,
        "meta_ephemeris_type": 0,
        "meta_classification_type": "U",
        "meta_norad_cat_id": 37763,
        "meta_element_set_no": 999,
        "meta_rev_at_epoch": 5286,
        "meta_bstar": 0,
        "meta_mean_motion_dot": 5.9e-07,
        "meta_mean_motion_ddot": 0,
        "tle_line1": "1 37763U 11038A   25355.42114426  .00000059  00000+0  00000+0 0  9995",
        "tle_line2": "2 37763  54.5854 167.2693 0149155 230.0944 299.1265  1.00280083 52867"
      },
      "geometry": {
        "type": "Point",
        "coordinates": [
          151.02758330937337,
          -21.389206643553113
        ]
      }
    }
  ]
}